STARLINK-5170           
1 54062U 22136M   23318.99779208 -.00001426  00000+0 -71538-4 0  9991
2 54062  53.2166 180.5493 0001513  78.7170 281.3992 15.08835963 59176
STARLINK-5225           
1 54063U 22136N   23319.98770229  .00001173  00000+0  91757-4 0  9998
2 54063  53.2159 176.0650 0001207  80.7585 279.3544 15.08847104 59807
STARLINK-5172           
1 54064U 22136P   23320.46843480  .00000730  00000+0  63978-4 0  9996
2 54064  53.2150 129.1536 0001350  89.7150 270.3996 15.08839858 60505
STARLINK-5187           
1 54065U 22136Q   23319.91409467  .00002233  00000+0  15834-3 0  9995
2 54065  53.2158 176.3200 0001678  95.8009 264.3175 15.08845663 59310
STARLINK-5151           
1 54066U 22136R   23319.98402551  .00000179  00000+0  29376-4 0  9994
2 54066  53.2125 176.0431 0001819  92.2628 267.8573 15.08832825 59803
STARLINK-5174           
1 54067U 22136S   23320.03920847  .00001357  00000+0  10335-3 0  9999
2 54067  53.2110 175.6790 0001461 102.2687 257.8468 15.08836891 59811
STARLINK-5222           
1 54068U 22136T   23319.97665038 -.00000623  00000+0 -21054-4 0  9997
2 54068  53.2138 175.9994 0001279  90.0172 270.0967 15.08841812 59800
STARLINK-5223           
1 54069U 22136U   23320.02815311  .00001065  00000+0  84996-4 0  9990
2 54069  53.2169 175.6106 0001626  90.1161 270.0017 15.08840087 59812
STARLINK-5181           
1 54070U 22136V   23319.89934853 -.00000088  00000+0  12601-4 0  9997
2 54070  53.2121 176.2260 0002586  94.9651 265.1636 15.08839226 59794
STARLINK-5168           
1 54071U 22136W   23319.58385834  .00001421  00000+0  10736-3 0  9990
2 54071  53.2214 177.8084 0001665  93.0650 267.0533 15.08837607 59748
STARLINK-5144           
1 54072U 22136X   23320.03550662  .00004126  00000+0  27706-3 0  9996
2 54072  53.2165 175.6571 0000831  75.8721 284.2363 15.08854573 59813
STARLINK-5146           
1 54073U 22136Y   23320.02677336  .00000926  00000+0  76311-4 0  9995
2 54073  53.2124 170.6196 0001966  95.7678 264.3538 15.08837922 59888
STARLINK-5192           
1 54074U 22136Z   23320.02446411  .00001664  00000+0  12258-3 0  9993
2 54074  53.2183 175.5862 0001714  87.1851 272.9338 15.08843239 59811
STARLINK-5212           
1 54075U 22136AA  23319.89060830  .00001493  00000+0  11186-3 0  9993
2 54075  53.2139 171.1871 0001267  91.8440 268.2697 15.08836519 59385
STARLINK-5201           
1 54076U 22136AB  23320.02078396  .00000479  00000+0  48208-4 0  9996
2 54076  53.2173 175.5630 0001672  89.5230 270.5954 15.08838052 59810
STARLINK-5171           
1 54077U 22136AC  23319.82759247 -.00001708  00000+0 -89222-4 0  9993
2 54077  53.2131 156.5322 0001652  95.4232 264.6949 15.08838069 59588
STARLINK-5138           
1 54078U 22136AD  23320.51578996  .00000861  00000+0  72223-4 0  9992
2 54078  53.2124 153.7159 0001557  96.0927 264.0243 15.08835358 60165
STARLINK-5175           
1 54079U 22136AE  23319.88194304  .00001391  00000+0  10547-3 0  9997
2 54079  53.2155 166.8325 0001285  84.7100 275.4039 15.08835400 59924
STARLINK-5160           
1 54080U 22136AF  23320.00843117  .00002224  00000+0  15776-3 0  9993
2 54080  53.2155 171.2049 0001784  94.4661 265.6535 15.08847751 59871
STARLINK-5165           
1 54081U 22136AG  23320.01169309  .00003020  00000+0  20775-3 0  9999
2 54081  53.2153 166.2210 0001327  87.9497 272.1647 15.08841810 59946
STARLINK-5210           
1 54082U 22136AH  23320.01073749  .00000871  00000+0  72812-4 0  9993
2 54082  53.2171 166.2144 0001303  87.2969 272.8173 15.08838909 59940
STARLINK-5178           
1 54083U 22136AJ  23319.99968407  .00000029  00000+0  19915-4 0  9993
2 54083  53.2175 166.1466 0001539  89.6014 270.5154 15.08836557 59940
STARLINK-5183           
1 54084U 22136AK  23320.00705237  .00000624  00000+0  57273-4 0  9998
2 54084  53.2170 166.1898 0001169  90.0260 270.0866 15.08835888 59944
STARLINK-5166           
1 54085U 22136AL  23319.99599429  .00001560  00000+0  11607-3 0  9999
2 54085  53.2164 166.1248 0001584  93.7604 266.3569 15.08839874 59936
STARLINK-5211           
1 54086U 22136AM  23319.80051006  .00000619  00000+0  56957-4 0  9996
2 54086  53.2141 152.0782 0001473  90.5763 269.5398 15.08839246 59643
STARLINK-5184           
1 54087U 22136AN  23319.85342299  .00000039  00000+0  20568-4 0  9994
2 54087  53.2153 166.6571 0001548  94.0278 266.0891 15.08838896 59445
STARLINK-5153           
1 54088U 22136AP  23320.00336920  .00000663  00000+0  59741-4 0  9996
2 54088  53.2171 166.1709 0001732  94.1549 265.9641 15.08838368 59930
STARLINK-5143           
1 54089U 22136AQ  23319.84878007  .00002353  00000+0  16587-3 0  9992
2 54089  53.2131 166.6280 0001424  89.9056 270.2099 15.08838458 59441
STARLINK-5177           
1 54090U 22136AR  23319.85245674  .00000383  00000+0  42121-4 0  9998
2 54090  53.2160 166.6496 0001445  93.7614 266.3543 15.08854205 59448
STARLINK-5221           
1 54091U 22136AS  23319.95546662  .00001467  00000+0  11025-3 0  9993
2 54091  53.2143 165.8795 0001542  98.5105 261.6062 15.08838253 59932
STARLINK-5190           
1 54092U 22136AT  23319.84605107  .00012906  00000+0  79853-3 0  9995
2 54092  53.2133 166.6115 0001383 149.3847 210.7227 15.10148788 59442
STARLINK-5213           
1 54093U 22136AU  23319.83772302  .00000980  00000+0  79625-4 0  9994
2 54093  53.2160 166.5628 0001574  85.1622 274.9550 15.08844423 59448
STARLINK-5219           
1 54094U 22136AV  23319.84509493  .00001709  00000+0  12545-3 0  9992
2 54094  53.2123 166.6058 0001589  88.4416 271.6758 15.08841777 59442
STARLINK-5193           
1 54095U 22136AW  23319.83035310  .00001787  00000+0  13032-3 0  9992
2 54095  53.2153 166.5153 0001462  89.3623 270.7537 15.08843517 59440
STARLINK-5188           
1 54096U 22136AX  23319.84141182  .00001149  00000+0  90259-4 0  9998
2 54096  53.2157 166.5842 0001722  87.5885 272.5304 15.08839533 59444
STARLINK-5197           
1 54097U 22136AY  23319.78300011  .00000933  00000+0  76704-4 0  9999
2 54097  53.2125 141.9817 0001625  91.7780 268.3398 15.08845841 59784
STARLINK-5217           
1 54098U 22136AZ  23319.95914471 -.00003529  00000+0 -20363-3 0  9995
2 54098  53.2166 165.8981 0001075  95.3892 264.7223 15.08864235 59932
STARLINK-5198           
1 54099U 22136BA  23319.88554189  .00001371  00000+0  10421-3 0  9999
2 54099  53.2190 166.1469 0001244  84.3574 275.7560 15.08837227 59452
STARLINK-5185           
1 54100U 22136BB  23318.97292411 -.00000934  00000+0 -40617-4 0  9995
2 54100  53.2173 170.4059 0001655 100.9637 259.1542 15.08839901 59312
STARLINK-5204           
1 54101U 22136BC  23319.83454392 -.00000148  00000+0  87583-5 0  9990
2 54101  53.2158 151.5820 0000909  97.3027 262.8069 15.08837254 59656
STARLINK-5179           
1 54102U 22136BD  23320.14925908  .00000872  00000+0  75932-4 0  9990
2 54102  53.2165 165.6449 0001422  83.7155 276.3998 15.07195019 59959
STARLINK-5200           
1 54103U 22136BE  23319.90212939  .00001002  00000+0  81073-4 0  9995
2 54103  53.2152 146.3041 0001522  87.8791 272.2375 15.08839125 60200
STARLINK-5203           
1 54104U 22136BF  23319.77753452 -.00000128  00000+0  10010-4 0  9993
2 54104  53.2146 131.9507 0000480 338.5408  21.5564 15.08816680 59927
STARLINK-5290           
1 54157U 22141A   23320.11005085  .00014862  00000+0  94842-3 0  9992
2 54157  53.2175 205.6388 0001967 102.1969 257.9243 15.08897924 58211
STARLINK-5297           
1 54158U 22141B   23319.85249306  .00001259  00000+0  97162-4 0  9993
2 54158  53.2168 206.8762 0001692  83.8934 276.2251 15.08839297 58172
STARLINK-5294           
1 54159U 22141C   23320.11376451  .00002322  00000+0  16393-3 0  9995
2 54159  53.2173 205.6716 0001655  85.5276 274.5905 15.08846862 58210
STARLINK-5233           
1 54160U 22141D   23319.82903023 -.00000949  00000+0 -41564-4 0  9998
2 54160  53.2153 161.8151 0001555  88.0462 272.0708 15.08826163 58801
STARLINK-5269           
1 54161U 22141E   23320.11472733  .00000606  00000+0  56184-4 0  9994
2 54161  53.2181 205.6680 0001557  85.9941 274.1229 15.08838399 58217
STARLINK-5273           
1 54162U 22141F   23319.97391742  .00000300  00000+0  36971-4 0  9990
2 54162  53.2163 206.2145 0001642  89.7248 270.3933 15.08840885 58198
STARLINK-5161           
1 54163U 22141G   23320.05213503  .00001603  00000+0  11876-3 0  9993
2 54163  53.2173 196.0144 0001432  93.6733 266.4423 15.08842243 58342
STARLINK-5278           
1 54164U 22141H   23320.05581784  .00001259  00000+0  97174-4 0  9996
2 54164  53.2177 196.0370 0001571  82.1836 277.9334 15.08844624 58342
STARLINK-5279           
1 54165U 22141J   23320.10270931  .00002555  00000+0  17855-3 0  9999
2 54165  53.2159 205.5951 0001420  89.8590 270.2565 15.08846340 58213
STARLINK-5280           
1 54166U 22141K   23320.04845015  .00002960  00000+0  20401-3 0  9995
2 54166  53.2188 195.9941 0001774  84.4597 275.6597 15.08842801 58343
STARLINK-5243           
1 54167U 22141L   23319.95180922  .00001349  00000+0  10281-3 0  9998
2 54167  53.2198 206.0760 0000343  75.8685 284.2346 15.08835999 58181
STARLINK-5245           
1 54168U 22141M   23320.04476380  .00002161  00000+0  15379-3 0  9993
2 54168  53.2160 195.9671 0001516  82.8617 277.2547 15.08844364 58343
STARLINK-5282           
1 54169U 22141N   23320.05941713  .00001272  00000+0  97960-4 0  9991
2 54169  53.2179 195.3604 0001437  93.0199 267.0958 15.08847434 58350
STARLINK-5155           
1 54170U 22141P   23320.04108128  .00001135  00000+0  89411-4 0  9997
2 54170  53.2189 195.9492 0001608  93.8729 266.2447 15.08843336 58330
STARLINK-5229           
1 54171U 22141Q   23320.09026726  .00006225  00000+0  40860-3 0  9995
2 54171  53.2175 200.5251 0001456  96.5220 263.5938 15.08861322 58283
STARLINK-5117           
1 54172U 22141R   23319.96747070  .00006185  00000+0  40644-3 0  9997
2 54172  53.2151 196.2000 0001556  97.2103 262.9066 15.08831169 58337
